[{"OBJECT_NAME":"DRESDEN","OBJECT_ID":"2025-185A","EPOCH":"2026-03-09T17:16:36.875136","MEAN_MOTION":14.773332,"ECCENTRICITY":0.00118457,"INCLINATION":97.9609,"RA_OF_ASC_NODE":153.1305,"ARG_OF_PERICENTER":62.0124,"MEAN_ANOMALY":298.2283,"EPHEMERIS_TYPE":0,"CLASSIFICATION_TYPE":"U","NORAD_CAT_ID":65297,"ELEMENT_SET_NO":999,"REV_AT_EPOCH":2913,"BSTAR":0.0014833733,"MEAN_MOTION_DOT":0.0001051,"MEAN_MOTION_DDOT":0},{"OBJECT_NAME":"COSMOS 2251 DEB","OBJECT_ID":"1993-036BQP","EPOCH":"2026-03-08T09:46:41.612448","MEAN_MOTION":14.70130335,"ECCENTRICITY":0.00636582,"INCLINATION":74.0609,"RA_OF_ASC_NODE":218.3001,"ARG_OF_PERICENTER":235.6067,"MEAN_ANOMALY":123.9075,"EPHEMERIS_TYPE":0,"CLASSIFICATION_TYPE":"U","NORAD_CAT_ID":37988,"ELEMENT_SET_NO":999,"REV_AT_EPOCH":24654,"BSTAR":0.0018026886,"MEAN_MOTION_DOT":0.00011173,"MEAN_MOTION_DDOT":0}]
